[{"OBJECT_NAME":"ONEWEB-0240","OBJECT_ID":"2021-045U","EPOCH":"2026-03-12T01:23:11.626944","MEAN_MOTION":13.15546897,"ECCENTRICITY":0.00019771,"INCLINATION":87.8956,"RA_OF_ASC_NODE":278.5644,"ARG_OF_PERICENTER":93.8348,"MEAN_ANOMALY":266.3008,"EPHEMERIS_TYPE":0,"CLASSIFICATION_TYPE":"U","NORAD_CAT_ID":48785,"ELEMENT_SET_NO":999,"REV_AT_EPOCH":23163,"BSTAR":-0.00019668044,"MEAN_MOTION_DOT":-6.1e-7,"MEAN_MOTION_DDOT":0},{"OBJECT_NAME":"ONEWEB-0246","OBJECT_ID":"2021-045V","EPOCH":"2026-03-12T06:43:45.321024","MEAN_MOTION":13.15548283,"ECCENTRICITY":0.0001562,"INCLINATION":87.8948,"RA_OF_ASC_NODE":278.5294,"ARG_OF_PERICENTER":93.2881,"MEAN_ANOMALY":266.8428,"EPHEMERIS_TYPE":0,"CLASSIFICATION_TYPE":"U","NORAD_CAT_ID":48786,"ELEMENT_SET_NO":999,"REV_AT_EPOCH":23153,"BSTAR":-0.00027753811,"MEAN_MOTION_DOT":-9.2e-7,"MEAN_MOTION_DDOT":0},{"OBJECT_NAME":"ONEWEB-0210","OBJECT_ID":"2021-045W","EPOCH":"2026-03-12T02:28:12.119520","MEAN_MOTION":13.15548098,"ECCENTRICITY":0.00015787,"INCLINATION":87.8947,"RA_OF_ASC_NODE":278.5618,"ARG_OF_PERICENTER":122.4748,"MEAN_ANOMALY":237.6535,"EPHEMERIS_TYPE":0,"CLASSIFICATION_TYPE":"U","NORAD_CAT_ID":48787,"ELEMENT_SET_NO":999,"REV_AT_EPOCH":23155,"BSTAR":0.00054174311,"MEAN_MOTION_DOT":2.17e-6,"MEAN_MOTION_DDOT":0},{"OBJECT_NAME":"ONEWEB-0214","OBJECT_ID":"2021-045X","EPOCH":"2026-03-12T02:40:45.586272","MEAN_MOTION":13.15548145,"ECCENTRICITY":0.00013817,"INCLINATION":87.8949,"RA_OF_ASC_NODE":278.556,"ARG_OF_PERICENTER":103.9551,"MEAN_ANOMALY":256.1733,"EPHEMERIS_TYPE":0,"CLASSIFICATION_TYPE":"U","NORAD_CAT_ID":48788,"ELEMENT_SET_NO":999,"REV_AT_EPOCH":23152,"BSTAR":0.00017907208,"MEAN_MOTION_DOT":8.0e-7,"MEAN_MOTION_DDOT":0},{"OBJECT_NAME":"ONEWEB-0221","OBJECT_ID":"2021-045Y","EPOCH":"2026-03-12T02:51:01.173312","MEAN_MOTION":13.15548408,"ECCENTRICITY":0.00017618,"INCLINATION":87.8947,"RA_OF_ASC_NODE":278.5644,"ARG_OF_PERICENTER":95.2087,"MEAN_ANOMALY":264.9244,"EPHEMERIS_TYPE":0,"CLASSIFICATION_TYPE":"U","NORAD_CAT_ID":48789,"ELEMENT_SET_NO":999,"REV_AT_EPOCH":23161,"BSTAR":9.3776064e-5,"MEAN_MOTION_DOT":4.8e-7,"MEAN_MOTION_DDOT":0},{"OBJECT_NAME":"ONEWEB-0213","OBJECT_ID":"2021-045Z","EPOCH":"2026-03-12T02:35:02.659488","MEAN_MOTION":13.15548768,"ECCENTRICITY":0.00016651,"INCLINATION":87.8945,"RA_OF_ASC_NODE":278.5706,"ARG_OF_PERICENTER":100.2609,"MEAN_ANOMALY":259.8709,"EPHEMERIS_TYPE":0,"CLASSIFICATION_TYPE":"U","NORAD_CAT_ID":48790,"ELEMENT_SET_NO":999,"REV_AT_EPOCH":23167,"BSTAR":0.00044095822,"MEAN_MOTION_DOT":1.79e-6,"MEAN_MOTION_DDOT":0},{"OBJECT_NAME":"ONEWEB-0212","OBJECT_ID":"2021-045AA","EPOCH":"2026-03-12T02:01:57.763776","MEAN_MOTION":13.15547879,"ECCENTRICITY":0.00016337,"INCLINATION":87.8945,"RA_OF_ASC_NODE":278.5699,"ARG_OF_PERICENTER":89.4394,"MEAN_ANOMALY":270.6924,"EPHEMERIS_TYPE":0,"CLASSIFICATION_TYPE":"U","NORAD_CAT_ID":48791,"ELEMENT_SET_NO":999,"REV_AT_EPOCH":23166,"BSTAR":0.00029871221,"MEAN_MOTION_DOT":1.25e-6,"MEAN_MOTION_DDOT":0},{"OBJECT_NAME":"ONEWEB-0227","OBJECT_ID":"2021-045AB","EPOCH":"2026-03-12T02:00:49.547520","MEAN_MOTION":13.15548048,"ECCENTRICITY":0.00017052,"INCLINATION":87.8943,"RA_OF_ASC_NODE":278.5721,"ARG_OF_PERICENTER":91.838,"MEAN_ANOMALY":268.2946,"EPHEMERIS_TYPE":0,"CLASSIFICATION_TYPE":"U","NORAD_CAT_ID":48792,"ELEMENT_SET_NO":999,"REV_AT_EPOCH":23161,"BSTAR":0.00020062967,"MEAN_MOTION_DOT":8.8e-7,"MEAN_MOTION_DDOT":0},{"OBJECT_NAME":"ONEWEB-0226","OBJECT_ID":"2021-045AC","EPOCH":"2026-03-12T07:20:15.623232","MEAN_MOTION":13.15547707,"ECCENTRICITY":0.00016129,"INCLINATION":87.8937,"RA_OF_ASC_NODE":278.5366,"ARG_OF_PERICENTER":101.7375,"MEAN_ANOMALY":258.3937,"EPHEMERIS_TYPE":0,"CLASSIFICATION_TYPE":"U","NORAD_CAT_ID":48793,"ELEMENT_SET_NO":999,"REV_AT_EPOCH":23161,"BSTAR":-8.0604114e-5,"MEAN_MOTION_DOT":-1.8e-7,"MEAN_MOTION_DDOT":0},{"OBJECT_NAME":"ONEWEB-0224","OBJECT_ID":"2021-045AD","EPOCH":"2026-03-12T06:27:48.333024","MEAN_MOTION":13.15550109,"ECCENTRICITY":0.00024773,"INCLINATION":87.8936,"RA_OF_ASC_NODE":278.5801,"ARG_OF_PERICENTER":85.1267,"MEAN_ANOMALY":275.0146,"EPHEMERIS_TYPE":0,"CLASSIFICATION_TYPE":"U","NORAD_CAT_ID":48794,"ELEMENT_SET_NO":999,"REV_AT_EPOCH":23153,"BSTAR":0.00043035421,"MEAN_MOTION_DOT":1.75e-6,"MEAN_MOTION_DDOT":0},{"OBJECT_NAME":"ONEWEB-0233","OBJECT_ID":"2021-045AE","EPOCH":"2026-03-12T06:34:25.753152","MEAN_MOTION":13.15548604,"ECCENTRICITY":0.00018705,"INCLINATION":87.8934,"RA_OF_ASC_NODE":278.5881,"ARG_OF_PERICENTER":96.2549,"MEAN_ANOMALY":263.8794,"EPHEMERIS_TYPE":0,"CLASSIFICATION_TYPE":"U","NORAD_CAT_ID":48795,"ELEMENT_SET_NO":999,"REV_AT_EPOCH":23155,"BSTAR":6.5371498e-5,"MEAN_MOTION_DOT":3.7e-7,"MEAN_MOTION_DDOT":0},{"OBJECT_NAME":"ONEWEB-0190","OBJECT_ID":"2021-045AF","EPOCH":"2026-03-12T02:37:19.561152","MEAN_MOTION":13.15548918,"ECCENTRICITY":0.00019943,"INCLINATION":87.8936,"RA_OF_ASC_NODE":278.582,"ARG_OF_PERICENTER":111.0086,"MEAN_ANOMALY":249.1258,"EPHEMERIS_TYPE":0,"CLASSIFICATION_TYPE":"U","NORAD_CAT_ID":48796,"ELEMENT_SET_NO":999,"REV_AT_EPOCH":23160,"BSTAR":0.00024237985,"MEAN_MOTION_DOT":1.04e-6,"MEAN_MOTION_DDOT":0},{"OBJECT_NAME":"ONEWEB-0236","OBJECT_ID":"2021-045AG","EPOCH":"2026-03-12T03:02:25.559808","MEAN_MOTION":13.1554848,"ECCENTRICITY":0.00016367,"INCLINATION":87.8936,"RA_OF_ASC_NODE":278.5895,"ARG_OF_PERICENTER":84.9435,"MEAN_ANOMALY":275.1882,"EPHEMERIS_TYPE":0,"CLASSIFICATION_TYPE":"U","NORAD_CAT_ID":48797,"ELEMENT_SET_NO":999,"REV_AT_EPOCH":23149,"BSTAR":-0.00030239141,"MEAN_MOTION_DOT":-1.01e-6,"MEAN_MOTION_DDOT":0},{"OBJECT_NAME":"ONEWEB-0248","OBJECT_ID":"2021-045AH","EPOCH":"2026-03-12T06:59:43.382112","MEAN_MOTION":13.15550836,"ECCENTRICITY":0.00021022,"INCLINATION":87.8944,"RA_OF_ASC_NODE":278.5302,"ARG_OF_PERICENTER":97.2838,"MEAN_ANOMALY":262.8531,"EPHEMERIS_TYPE":0,"CLASSIFICATION_TYPE":"U","NORAD_CAT_ID":48798,"ELEMENT_SET_NO":999,"REV_AT_EPOCH":23167,"BSTAR":-0.00018261095,"MEAN_MOTION_DOT":-5.6e-7,"MEAN_MOTION_DDOT":0},{"OBJECT_NAME":"ONEWEB-0225","OBJECT_ID":"2021-045AJ","EPOCH":"2026-03-12T02:03:06.114816","MEAN_MOTION":13.15548135,"ECCENTRICITY":0.00019174,"INCLINATION":87.8936,"RA_OF_ASC_NODE":278.5875,"ARG_OF_PERICENTER":107.149,"MEAN_ANOMALY":252.985,"EPHEMERIS_TYPE":0,"CLASSIFICATION_TYPE":"U","NORAD_CAT_ID":48799,"ELEMENT_SET_NO":999,"REV_AT_EPOCH":23165,"BSTAR":0.00025060896,"MEAN_MOTION_DOT":1.07e-6,"MEAN_MOTION_DDOT":0},{"OBJECT_NAME":"ONEWEB-0215","OBJECT_ID":"2021-045AK","EPOCH":"2026-03-12T03:09:16.928352","MEAN_MOTION":13.15548331,"ECCENTRICITY":0.00021436,"INCLINATION":87.8949,"RA_OF_ASC_NODE":278.5509,"ARG_OF_PERICENTER":107.1369,"MEAN_ANOMALY":252.9996,"EPHEMERIS_TYPE":0,"CLASSIFICATION_TYPE":"U","NORAD_CAT_ID":48800,"ELEMENT_SET_NO":999,"REV_AT_EPOCH":23153,"BSTAR":-0.00028990996,"MEAN_MOTION_DOT":-9.6e-7,"MEAN_MOTION_DDOT":0}]
