ONEWEB-0240             
1 48785U 21045U   26071.05777346 -.00000061  00000+0 -19668-3 0  9990
2 48785  87.8956 278.5644 0001977  93.8348 266.3008 13.15546897231631
ONEWEB-0246             
1 48786U 21045V   26071.28038566 -.00000092  00000+0 -27754-3 0  9999
2 48786  87.8948 278.5294 0001562  93.2881 266.8428 13.15548283231531
ONEWEB-0210             
1 48787U 21045W   26071.10291805  .00000217  00000+0  54174-3 0  9991
2 48787  87.8947 278.5618 0001578 122.4748 237.6535 13.15548098231556
ONEWEB-0214             
1 48788U 21045X   26071.11163873  .00000080  00000+0  17907-3 0  9997
2 48788  87.8949 278.5560 0001381 103.9551 256.1733 13.15548145231529
ONEWEB-0221             
1 48789U 21045Y   26071.11876358  .00000048  00000+0  93776-4 0  9990
2 48789  87.8947 278.5644 0001761  95.2087 264.9244 13.15548408231616
ONEWEB-0213             
1 48790U 21045Z   26071.10766967  .00000179  00000+0  44096-3 0  9990
2 48790  87.8945 278.5706 0001665 100.2609 259.8709 13.15548768231679
ONEWEB-0212             
1 48791U 21045AA  26071.08469634  .00000125  00000+0  29871-3 0  9994
2 48791  87.8945 278.5699 0001633  89.4394 270.6924 13.15547879231666
ONEWEB-0227             
1 48792U 21045AB  26071.08390680  .00000088  00000+0  20063-3 0  9991
2 48792  87.8943 278.5721 0001705  91.8380 268.2946 13.15548048231614
ONEWEB-0226             
1 48793U 21045AC  26071.30573638 -.00000018  00000+0 -80604-4 0  9996
2 48793  87.8937 278.5366 0001612 101.7375 258.3937 13.15547707231616
ONEWEB-0224             
1 48794U 21045AD  26071.26930941  .00000175  00000+0  43035-3 0  9994
2 48794  87.8936 278.5801 0002477  85.1267 275.0146 13.15550109231534
ONEWEB-0233             
1 48795U 21045AE  26071.27390918  .00000037  00000+0  65371-4 0  9995
2 48795  87.8934 278.5881 0001870  96.2549 263.8794 13.15548604231556
ONEWEB-0190             
1 48796U 21045AF  26071.10925418  .00000104  00000+0  24238-3 0  9998
2 48796  87.8936 278.5820 0001994 111.0086 249.1258 13.15548918231607
ONEWEB-0236             
1 48797U 21045AG  26071.12668472 -.00000101  00000+0 -30239-3 0  9992
2 48797  87.8936 278.5895 0001636  84.9435 275.1882 13.15548480231492
ONEWEB-0248             
1 48798U 21045AH  26071.29147433 -.00000056  00000+0 -18261-3 0  9990
2 48798  87.8944 278.5302 0002102  97.2838 262.8531 13.15550836231670
ONEWEB-0225             
1 48799U 21045AJ  26071.08548744  .00000107  00000+0  25061-3 0  9999
2 48799  87.8936 278.5875 0001917 107.1490 252.9850 13.15548135231656
ONEWEB-0215             
1 48800U 21045AK  26071.13144593 -.00000096  00000+0 -28991-3 0  9996
2 48800  87.8949 278.5509 0002143 107.1369 252.9996 13.15548331231530
